STARLINK-32743          
1 62480U 24254U   26068.19982302  .00025478  00000+0  93197-3 0  9990
2 62480  42.9994  18.6534 0002906 253.1247 106.9286 15.27585096 67583
LIME                    
1 62648U 25009AR  26068.73906781  .00013254  00000+0  47723-3 0  9995
2 62648  97.3985 151.4831 0001635  35.9029 324.2320 15.28703313 63766
